{"generatedAt":"2026-04-03T07:19:06.299447Z","satellites":[{"name":"KUIPER-00196","tle1":"1 67144C 25301M   26093.02506944  .00017451  00000+0  46172-3 0   938","tle2":"2 67144  51.8704 307.0543 0003953 100.5086  38.4671 15.37764738    12"},{"name":"KUIPER-00204","tle1":"1 67145C 25301N   26093.12456019  .00011419  00000+0  43502-3 0   939","tle2":"2 67145  51.8833 314.1392 0001782  60.2204 154.4382 15.26137791    18"},{"name":"KUIPER-00210","tle1":"1 67146C 25301P   26093.15776620  .00010848  00000+0  14209-2 0   932","tle2":"2 67146  51.8998 324.9065 0000691  84.5065 241.5694 14.79895424    14"},{"name":"KUIPER-00221","tle1":"1 67147C 25301Q   26093.23344907  .00009127  00000+0  11960-2 0   930","tle2":"2 67147  51.9019 332.0791 0000671  79.3377 153.2999 14.79881294    19"},{"name":"KUIPER-00232","tle1":"1 67148C 25301R   26093.08738426  .00005405  00000+0  76842-3 0   933","tle2":"2 67148  51.8994 316.9986 0000923  97.4503 210.5976 14.76429338    16"},{"name":"KUIPER-00241","tle1":"1 67149C 25301S   26093.11758102  .00011304  00000+0  14807-2 0   938","tle2":"2 67149  51.9031 327.6015 0000626 132.8835 173.0150 14.79894154    16"},{"name":"KUIPER-00245","tle1":"1 67150C 25301T   26093.23172454  .00001839  00000+0  24099-3 0   930","tle2":"2 67150  51.9030 334.6099 0000800 103.8250 134.2223 14.79873953    14"},{"name":"KUIPER-00246","tle1":"1 67151C 25301U   26093.20980324  .00002170  00000+0  30080-3 0   937","tle2":"2 67151  51.9000 319.6428 0000645 100.6455 134.3852 14.77509623    17"},{"name":"KUIPER-00247","tle1":"1 67152C 25301V   26093.19406250  .00002872  00000+0  22950-3 0   933","tle2":"2 67152  51.8897 310.0938 0011239 141.3978 104.5620 14.99679054    17"},{"name":"KUIPER-00248","tle1":"1 67153C 25301W   26093.11250000  .00016165  00000+0  41891-3 0   931","tle2":"2 67153  51.8661 307.4188 0010295 131.1063  84.3482 15.38355090    13"},{"name":"KUIPER-00249","tle1":"1 67154C 25301X   26093.05461806  .00008660  00000+0  55635-3 0   935","tle2":"2 67154  51.8818 308.8880 0005130 145.5938 166.2101 15.07899168    17"},{"name":"KUIPER-00250","tle1":"1 67155C 25301Y   26093.12995370  .00005541  00000+0  78642-3 0   930","tle2":"2 67155  51.8995 322.2084 0001404 140.7515  10.0121 14.76501319    19"},{"name":"KUIPER-00251","tle1":"1 67156C 25301Z   26093.12717593  .00004896  00000+0  42179-3 0   938","tle2":"2 67156  51.8922 310.2487 0007869 135.7493  74.4834 14.96803703    13"},{"name":"KUIPER-00252","tle1":"1 67157C 25301AA  26093.06432870  .00005133  00000+0  57626-3 0   932","tle2":"2 67157  51.8981 312.4272 0005955 154.9545 344.6625 14.86275696    13"},{"name":"KUIPER-00261","tle1":"1 67158C 25301AB  26093.20843750  .00002884  00000+0  39779-3 0   931","tle2":"2 67158  51.9016 322.1927 0000617  79.0985 159.4528 14.77716631    17"},{"name":"KUIPER-00265","tle1":"1 67159C 25301AC  26093.22755787  .00009357  00000+0  12265-2 0   938","tle2":"2 67159  51.9029 337.1127 0000823  82.3552 148.2121 14.79866097    15"},{"name":"KUIPER-00159","tle1":"1 67764C 26030A   26093.11405093  .00006000  00000+0  16477-3 0   932","tle2":"2 67764  51.8838 101.2989 0005829 113.0174   8.2177 15.36618167    16"},{"name":"KUIPER-00160","tle1":"1 67765C 26030B   26093.11965278  .00006190  00000+0  17079-3 0   938","tle2":"2 67765  51.8801 101.3040 0005605 124.7531   2.5609 15.36472723    17"},{"name":"KUIPER-00177","tle1":"1 67766C 26030C   26093.20527778 -.00003631  00000+0 -39829-3 0   934","tle2":"2 67766  51.8989 104.6821 0006143 110.4143 304.7299 14.87221394    10"},{"name":"KUIPER-00178","tle1":"1 67767C 26030D   26093.19208333 -.01108800  00000+0 -93517-1 0   933","tle2":"2 67767  51.8932 103.6754 0007734 132.1131 183.6171 14.98747075    12"},{"name":"KUIPER-00180","tle1":"1 67768C 26030E   26093.24142361 -.00763940  00000+0 -35460-1 0   932","tle2":"2 67768  51.8824 102.5054 0014170 148.9590 137.3979 15.20147895    12"},{"name":"KUIPER-00197","tle1":"1 67769C 26030F   26093.17648148  .00005394  00000+0  14562-3 0   931","tle2":"2 67769  51.8826 100.7725 0002962  99.2966 114.9095 15.37159197    17"},{"name":"KUIPER-00198","tle1":"1 67770C 26030G   26093.03541667  .00007371  00000+0  20100-3 0   938","tle2":"2 67770  51.8806 101.5559 0003895 108.3072 349.1281 15.36843950    12"},{"name":"KUIPER-00199","tle1":"1 67771C 26030H   26093.12765046  .00002606  00000+0  75131-4 0   939","tle2":"2 67771  51.8804 101.7299 0010970 139.3524 162.8615 15.35060829    18"},{"name":"KUIPER-00200","tle1":"1 67772C 26030J   26093.14280093  .00005397  00000+0  14223-3 0   930","tle2":"2 67772  51.8795 100.6829 0001918  37.4491 109.5013 15.37905772    15"},{"name":"KUIPER-00203","tle1":"1 67773C 26030K   26093.11329861 -.00003804  00000+0 -54082-3 0   935","tle2":"2 67773  51.9035 109.6212 0000475 156.6326  26.9921 14.76441041    13"},{"name":"KUIPER-00205","tle1":"1 67774C 26030L   26093.14594907  .00003469  00000+0  93104-4 0   938","tle2":"2 67774  51.8803 100.8980 0004686  92.3171 318.0546 15.37333444    16"},{"name":"KUIPER-00208","tle1":"1 67775C 26030M   26093.06180556 -.00988580  00000+0 -58077-1 0   936","tle2":"2 67775  51.8911 103.8256 0017602 136.2535 322.9950 15.12025730    12"},{"name":"KUIPER-00209","tle1":"1 67776C 26030N   26093.07396991 -.00000495  00000+0 -19325-4 0   936","tle2":"2 67776  51.8826 103.3724 0013288 138.3558 262.1616 15.25221537    18"},{"name":"KUIPER-00213","tle1":"1 67777C 26030P   26093.16284722  .00000602  00000+0  21519-4 0   931","tle2":"2 67777  51.8814 102.2534 0016431 147.2002   2.4372 15.28120155    10"},{"name":"KUIPER-00214","tle1":"1 67778C 26030Q   26093.16537037  .00002799  00000+0  85511-4 0   933","tle2":"2 67778  51.8845 100.6996 0002048  57.1230 150.6958 15.33289731    18"},{"name":"KUIPER-00215","tle1":"1 67779C 26030R   26093.17129630  .00003712  00000+0  10643-3 0   930","tle2":"2 67779  51.8833 101.4831 0010491 135.7241  75.0887 15.35231377    15"},{"name":"KUIPER-00218","tle1":"1 67780C 26030S   26093.09347222  .00001828  00000+0  61471-4 0   934","tle2":"2 67780  51.8830 101.7252 0007765 127.7146  79.7502 15.30194476    17"},{"name":"KUIPER-00220","tle1":"1 67781C 26030T   26093.15115741  .00002978  00000+0  84904-4 0   934","tle2":"2 67781  51.8797 101.4779 0008832 131.4712   9.8075 15.35428067    18"},{"name":"KUIPER-00222","tle1":"1 67782C 26030U   26093.05423611  .00003150  00000+0  10565-3 0   936","tle2":"2 67782  51.8812 102.8717 0016876 142.5760  83.5821 15.30169098    16"},{"name":"KUIPER-00223","tle1":"1 67783C 26030V   26093.15114583  .00002755  00000+0  79939-4 0   934","tle2":"2 67783  51.8824 101.6877 0012386 139.7261 262.5546 15.34841026    15"},{"name":"KUIPER-00225","tle1":"1 67784C 26030W   26093.10917824  .00005672  00000+0  15521-3 0   936","tle2":"2 67784  51.8805 101.2504 0005149 107.3703  13.1688 15.36732109    19"},{"name":"KUIPER-00226","tle1":"1 67785C 26030X   26093.15807870 -.00181220  00000+0 -62331-2 0   937","tle2":"2 67785  51.8794 102.8473 0019330 148.2044  59.0854 15.29493290    19"},{"name":"KUIPER-00259","tle1":"1 67786C 26030Y   26093.14000000  .00004301  00000+0  12179-3 0   935","tle2":"2 67786  51.8792 101.4235 0008601 125.1343   7.3095 15.35643698    13"},{"name":"KUIPER-00260","tle1":"1 67787C 26030Z   26093.17159722  .00005002  00000+0  13420-3 0   934","tle2":"2 67787  51.8790 100.7297 0002543  85.3436 126.4151 15.37349863    16"},{"name":"KUIPER-00262","tle1":"1 67788C 26030AA  26093.16365741  .00004699  00000+0  12490-3 0   931","tle2":"2 67788  51.8798 100.6900 0001917  77.7857 131.6319 15.37642413    12"},{"name":"KUIPER-00266","tle1":"1 67789C 26030AB  26093.15982639  .00001930  00000+0  65239-4 0   937","tle2":"2 67789  51.8790 102.8452 0023116 154.7721  56.7538 15.29785015    19"},{"name":"KUIPER-00268","tle1":"1 67790C 26030AC  26093.15635417  .00004479  00000+0  12276-3 0   931","tle2":"2 67790  51.8840 100.9909 0004410 102.4584 303.6608 15.36689321    19"},{"name":"KUIPER-00270","tle1":"1 67791C 26030AD  26093.16710648  .00003460  00000+0  99183-4 0   935","tle2":"2 67791  51.8797 101.4423 0010855 136.2650  72.2794 15.35234991    10"},{"name":"KUIPER-00274","tle1":"1 67792C 26030AE  26093.20217593 -.00056037  00000+0 -19360-2 0   939","tle2":"2 67792  51.8808 102.6953 0017946 154.5520 271.0812 15.29251293    19"},{"name":"KUIPER-00275","tle1":"1 67793C 26030AF  26093.16291667  .00003680  00000+0  10480-3 0   938","tle2":"2 67793  51.8826 101.4226 0010147 128.9894  85.3875 15.35453892    16"},{"name":"KUIPER-00276","tle1":"1 67794C 26030AG  26093.11226852  .00000443  00000+0  15655-4 0   932","tle2":"2 67794  51.8803 103.1172 0018210 140.6810 152.3408 15.28459447    10"},{"name":"KUIPER-00279","tle1":"1 67795C 26030AH  26093.13067130  .00005996  00000+0  16750-3 0   931","tle2":"2 67795  51.8784 101.3445 0006388 119.3929  20.0801 15.36082693    11"}]}